{"id":359460,"type":"node","lat":50.915591400000004,"lon":6.9412465,"tags":{"addr:housenumber":"107","addr:street":"Höninger Weg","amenity":"fast_food","cuisine":"pizza","name":"Papa-Pizza","wheelchair":"yes"},"timestamp":"2014-02-07T20:17:33Z"}
{"id":545931,"type":"node","lat":48.7072377,"lon":9.6465332,"tags":{"addr:city":"Göppingen","addr:country":"DE","addr:housename":"Kreis-Medien-Zentrum \u0026 Radiofips","addr:housenumber":"22","addr:postcode":"73033","addr:street":"Eberhardstraße"},"timestamp":"2009-08-17T07:50:21Z"}
{"id":661339,"type":"node","lat":48.1040226,"lon":11.4882626,"tags":{"addr:city":"München","addr:country":"DE","addr:housenumber":"7","addr:postcode":"81377","addr:street":"Lorettoplatz","amenity":"cafe","name":"Cafe Jeanette"},"timestamp":"2010-11-15T13:56:54Z"}
{"id":11007927,"type":"node","lat":51.005413700000005,"lon":13.806691500000001,"tags":{"addr:city":"Dresden","addr:country":"DE","addr:housenumber":"22","addr:postcode":"01239","addr:street":"Langer Weg","entrance":"main"},"timestamp":"2014-08-02T19:08:53Z"}
{"id":15520063,"type":"node","lat":48.9951731,"lon":8.3895265,"tags":{"addr:city":"Karlsruhe","addr:country":"DE","addr:housenumber":"32","addr:postcode":"76137","addr:street":"Ebertstraße","amenity":"fuel","brand":"Aral","contact:phone":"+49 721 817516","fuel:1_25":"no","fuel:1_50":"no","fuel:GTL_diesel":"yes","fuel:HGV_diesel":"no","fuel:biodiesel":"no","fuel:cng":"no","fuel:diesel":"yes","fuel:e10":"yes","fuel:e85":"no","fuel:lpg":"no","fuel:octane_100":"yes","fuel:octane_80":"no","fuel:octane_91":"no","fuel:octane_92":"no","fuel:octane_95":"yes","fuel:octane_98":"no","name":"Aral","opening_hours":"Mo-Fr 06:00-00:00; Sa, Su 07:00-00:00","shop":"yes","surveillance":"outdoor","surveillance:type":"camera"},"timestamp":"2014-01-21T17:50:51Z"}
{"id":16084570,"type":"node","lat":50.131205900000005,"lon":8.6832855,"tags":{"addr:city":"Frankfurt","addr:housenumber":"1","addr:postcode":"60322","addr:street":"Adickesallee","amenity":"library","email":"info-f@dnb.de","fax":"+49 69 15251010","name":"Deutsche Nationalbibliothek","phone":"49 69 15250","ref:isil":"DE-101b","website":"http://www.dnb.de/","wheelchair":"yes","wheelchair:description":"Es gibt zwar Aufzüge und rollstuhlgerechte Toiletten, aber auf all die Ziertreppchen häte man auch einfach verzichten können."},"timestamp":"2015-02-25T18:18:38Z"}
{"id":16257516,"type":"node","lat":49.54868990000001,"lon":8.6643041,"tags":{"addr:city":"Weinheim","addr:country":"DE","addr:housenumber":"31","addr:postcode":"69469","addr:street":"Bergstraße","amenity":"fast_food","brand":"McDonald's","cuisine":"burger","name":"McDonald's","smoking":"no","website":"http://www.mcdonalds.de/","wheelchair":"limited"},"timestamp":"2013-10-12T13:16:59Z"}
{"id":16351361,"type":"node","lat":49.551743200000004,"lon":8.675638300000001,"tags":{"addr:housenumber":"108","addr:street":"Grundelbachstraße","amenity":"restaurant","cuisine":"pizza","name":"Galileo","opening_hours":"Mo-Su 11:00-14:00,17:00-23:00; We off","phone":"+49 6201 68883","website":"http://galileo.sx64.de/","wheelchair":"yes"},"timestamp":"2013-08-03T10:38:09Z"}
{"id":16351362,"type":"node","lat":49.550660300000004,"lon":8.6749475,"tags":{"addr:city":"Weinheim","addr:housenumber":"21","addr:postcode":"69469","addr:street":"Lindenstraße","amenity":"restaurant","created_by":"JOSM","name":"Gasthaus Eulenspiegel"},"timestamp":"2008-11-09T17:35:11Z"}
{"id":16463150,"type":"node","lat":49.5502678,"lon":8.672179700000001,"tags":{"addr:city":"Weinheim","addr:country":"DE","addr:housenumber":"1","addr:postcode":"69469","addr:street":"Dürrestraße","amenity":"bank","atm":"yes","name":"BB Bank"},"timestamp":"2011-08-23T16:02:35Z"}
